1 56899U 23083Z   25334.83144500 -.00000463  00000+0 -19240-4 0  9999
2 56899  43.0037 258.5917 0001135 271.4127  88.6585 15.02532816136910
